[{"OBJECT_NAME":"YAOGAN-43 01H","OBJECT_ID":"2024-148H","EPOCH":"2026-03-10T00:13:57.702432","MEAN_MOTION":15.25826805,"ECCENTRICITY":0.000635,"INCLINATION":34.994,"RA_OF_ASC_NODE":64.6147,"ARG_OF_PERICENTER":359.2394,"MEAN_ANOMALY":0.8311,"EPHEMERIS_TYPE":0,"CLASSIFICATION_TYPE":"U","NORAD_CAT_ID":60465,"ELEMENT_SET_NO":999,"REV_AT_EPOCH":8702,"BSTAR":0.00039232254,"MEAN_MOTION_DOT":0.00010268,"MEAN_MOTION_DDOT":0},{"OBJECT_NAME":"STARLINK-32744","OBJECT_ID":"2025-003Y","EPOCH":"2026-03-09T00:10:01.664544","MEAN_MOTION":15.27597765,"ECCENTRICITY":0.00013706,"INCLINATION":43.0018,"RA_OF_ASC_NODE":293.1311,"ARG_OF_PERICENTER":268.9979,"MEAN_ANOMALY":91.0716,"EPHEMERIS_TYPE":0,"CLASSIFICATION_TYPE":"U","NORAD_CAT_ID":62509,"ELEMENT_SET_NO":999,"REV_AT_EPOCH":6644,"BSTAR":0.0012858497,"MEAN_MOTION_DOT":0.0003531,"MEAN_MOTION_DDOT":0}]
